*******************************************************************************
Ephemeris / WWW_USER Mon Jul 15 19:31:36 2024 Pasadena, USA      / Horizons    
*******************************************************************************
Target body name: Hale-Bopp (C/1995 O1)           {source: JPL#226}
Center body name: Earth (399)                     {source: DE441}
Center-site name: Gemini South Obs., Cerro Pachon
*******************************************************************************
Start time      : A.D. 2018-Oct-23 23:07:00.0000 UT      
Stop  time      : A.D. 2018-Oct-24 09:46:00.0000 UT      
Step-size       : 1 minutes
*******************************************************************************
Target pole/equ : undefined
Target radii    : 30. km                                                       
Center geodetic : 289.2634, -30.2406227, 2.71233  {E-lon(deg),Lat(deg),Alt(km)}
Center cylindric: 289.2634,5517.21435,-3194.81213 {E-lon(deg),Dxy(km),Dz(km)}
Center pole/equ : ITRF93                          {East-longitude positive}
Center radii    : 6378.137, 6378.137, 6356.752 km {Equator_a, b, pole_c}       
Target primary  : Sun
Vis. interferer : MOON (R_eq= 1737.400) km        {source: DE441}
Rel. light bend : Sun                             {source: DE441}
Rel. lght bnd GM: 1.3271E+11 km^3/s^2                                          
Small-body perts: Yes                             {source: SB441-N16}
Atmos refraction: NO (AIRLESS)
RA format       : HMS
Time format     : CAL 
Calendar mode   : Mixed Julian/Gregorian
RTS-only print  : NO       
EOP file        : eop.240715.p241008                                           
EOP coverage    : DATA-BASED 1962-JAN-20 TO 2024-JUL-15. PREDICTS-> 2024-OCT-07
Units conversion: 1 au= 149597870.700 km, c= 299792.458 km/s, 1 day= 86400.0 s 
Table cut-offs 1: Elevation (-90.0deg=NO ),Airmass (>38.000=NO), Daylight (YES)
Table cut-offs 2: Solar elongation (  0.0,180.0=NO ),Local Hour Angle( 0.0=NO )
Table cut-offs 3: RA/DEC angular rate (     0.0=NO )                           
*******************************************************************************
Initial IAU76/J2000 heliocentric ecliptic osculating elements (au, days, deg.):
  EPOCH=  2459837.5 ! 2022-Sep-15.0000000 (TDB)    RMSW= n.a.                  
   EC= .9949810027633206   QR= .890537663547794    TP= 2450537.1349071441      
   OM= 282.7334213961641   W= 130.4146670659176    IN= 89.28759424740302       
  Equivalent ICRF heliocentric cartesian coordinates (au, au/d):
   X= 3.907631452214869E+00  Y=-1.373895334060347E+00  Z=-4.624358508575312E+01
  VX= 3.778244409519935E-04 VY=-5.803173067116371E-04 VZ=-3.255716412104052E-03
Comet physical (GM= km^3/s^2; RAD= km):                                        
   GM= n.a.                RAD= 30.                                            
   M1=  4.8      M2=  n.a.     k1=  4.     k2= n.a.     PHCOF= n.a.            
*******************************************************************************
 Date__(UT)__HR:MN     R.A._________(ICRF)_________DEC
******************************************************
$$SOE
 2018-Oct-24 03:15  m  22 32 27.866667 -86 18 44.31113
 2018-Oct-24 03:16  m  22 32 27.831736 -86 18 44.26489
 2018-Oct-24 03:17  m  22 32 27.796807 -86 18 44.21865
 2018-Oct-24 03:18  m  22 32 27.761882 -86 18 44.17240
 2018-Oct-24 03:19  m  22 32 27.726959 -86 18 44.12615
 2018-Oct-24 03:20  m  22 32 27.692038 -86 18 44.07990
 2018-Oct-24 03:21  m  22 32 27.657121 -86 18 44.03365
 2018-Oct-24 03:22  m  22 32 27.622207 -86 18 43.98739
 2018-Oct-24 03:23  m  22 32 27.587295 -86 18 43.94113
 2018-Oct-24 03:24  m  22 32 27.552386 -86 18 43.89486
 2018-Oct-24 03:25  m  22 32 27.517480 -86 18 43.84859
 2018-Oct-24 03:26  m  22 32 27.482577 -86 18 43.80232
 2018-Oct-24 03:27  m  22 32 27.447676 -86 18 43.75604
 2018-Oct-24 03:28  m  22 32 27.412779 -86 18 43.70976
 2018-Oct-24 03:29  m  22 32 27.377884 -86 18 43.66348
 2018-Oct-24 03:30  m  22 32 27.342993 -86 18 43.61720
 2018-Oct-24 03:31  m  22 32 27.308104 -86 18 43.57091
 2018-Oct-24 03:32  m  22 32 27.273218 -86 18 43.52461
 2018-Oct-24 03:33  m  22 32 27.238336 -86 18 43.47832
 2018-Oct-24 03:34  m  22 32 27.203456 -86 18 43.43202
 2018-Oct-24 03:35  m  22 32 27.168579 -86 18 43.38572
 2018-Oct-24 03:36  m  22 32 27.133705 -86 18 43.33941
 2018-Oct-24 03:37  m  22 32 27.098834 -86 18 43.29310
 2018-Oct-24 03:38  m  22 32 27.063967 -86 18 43.24679
 2018-Oct-24 03:39  m  22 32 27.029102 -86 18 43.20047
 2018-Oct-24 03:40  m  22 32 26.994240 -86 18 43.15416
 2018-Oct-24 03:41  m  22 32 26.959381 -86 18 43.10783
 2018-Oct-24 03:42  m  22 32 26.924526 -86 18 43.06151
 2018-Oct-24 03:43  m  22 32 26.889673 -86 18 43.01518
 2018-Oct-24 03:44  m  22 32 26.854824 -86 18 42.96885
 2018-Oct-24 03:45  m  22 32 26.819977 -86 18 42.92251
 2018-Oct-24 03:46  m  22 32 26.785134 -86 18 42.87617
 2018-Oct-24 03:47  m  22 32 26.750294 -86 18 42.82983
 2018-Oct-24 03:48  m  22 32 26.715457 -86 18 42.78349
 2018-Oct-24 03:49  m  22 32 26.680623 -86 18 42.73714
 2018-Oct-24 03:50  m  22 32 26.645793 -86 18 42.69079
 2018-Oct-24 03:51  m  22 32 26.610965 -86 18 42.64444
 2018-Oct-24 03:52  m  22 32 26.576141 -86 18 42.59808
 2018-Oct-24 03:53  m  22 32 26.541320 -86 18 42.55172
 2018-Oct-24 03:54  m  22 32 26.506502 -86 18 42.50535
 2018-Oct-24 03:55  m  22 32 26.471687 -86 18 42.45899
 2018-Oct-24 03:56  m  22 32 26.436876 -86 18 42.41262
 2018-Oct-24 03:57  m  22 32 26.402068 -86 18 42.36625
 2018-Oct-24 03:58  m  22 32 26.367263 -86 18 42.31987
 2018-Oct-24 03:59  m  22 32 26.332461 -86 18 42.27349
 2018-Oct-24 04:00  m  22 32 26.297663 -86 18 42.22711
 2018-Oct-24 04:01  m  22 32 26.262868 -86 18 42.18072
 2018-Oct-24 04:02  m  22 32 26.228076 -86 18 42.13434
 2018-Oct-24 04:03  m  22 32 26.193287 -86 18 42.08795
 2018-Oct-24 04:04  m  22 32 26.158502 -86 18 42.04155
 2018-Oct-24 04:05  m  22 32 26.123720 -86 18 41.99515
 2018-Oct-24 04:06  m  22 32 26.088942 -86 18 41.94875
 2018-Oct-24 04:07  m  22 32 26.054167 -86 18 41.90235
 2018-Oct-24 04:08  m  22 32 26.019395 -86 18 41.85594
 2018-Oct-24 04:09  m  22 32 25.984627 -86 18 41.80954
 2018-Oct-24 04:10  m  22 32 25.949862 -86 18 41.76312
 2018-Oct-24 04:11  m  22 32 25.915100 -86 18 41.71671
 2018-Oct-24 04:12  m  22 32 25.880342 -86 18 41.67029
 2018-Oct-24 04:13  m  22 32 25.845588 -86 18 41.62387
 2018-Oct-24 04:14  m  22 32 25.810836 -86 18 41.57745
 2018-Oct-24 04:15  m  22 32 25.776088 -86 18 41.53102
 2018-Oct-24 04:16  m  22 32 25.741344 -86 18 41.48459
 2018-Oct-24 04:17  m  22 32 25.706603 -86 18 41.43816
 2018-Oct-24 04:18  m  22 32 25.671866 -86 18 41.39172
 2018-Oct-24 04:19  m  22 32 25.637132 -86 18 41.34528
 2018-Oct-24 04:20  m  22 32 25.602402 -86 18 41.29884
 2018-Oct-24 04:21  m  22 32 25.567675 -86 18 41.25240
 2018-Oct-24 04:22  m  22 32 25.532951 -86 18 41.20595
 2018-Oct-24 04:23  m  22 32 25.498231 -86 18 41.15950
 2018-Oct-24 04:24  m  22 32 25.463515 -86 18 41.11305
 2018-Oct-24 04:25  m  22 32 25.428802 -86 18 41.06660
 2018-Oct-24 04:26  m  22 32 25.394093 -86 18 41.02014
 2018-Oct-24 04:27  m  22 32 25.359388 -86 18 40.97368
 2018-Oct-24 04:28  m  22 32 25.324686 -86 18 40.92722
 2018-Oct-24 04:29  m  22 32 25.289987 -86 18 40.88075
 2018-Oct-24 04:30  m  22 32 25.255292 -86 18 40.83428
 2018-Oct-24 04:31  m  22 32 25.220601 -86 18 40.78781
 2018-Oct-24 04:32  m  22 32 25.185914 -86 18 40.74134
 2018-Oct-24 04:33  m  22 32 25.151230 -86 18 40.69486
 2018-Oct-24 04:34  m  22 32 25.116549 -86 18 40.64838
 2018-Oct-24 04:35  m  22 32 25.081873 -86 18 40.60190
 2018-Oct-24 04:36  m  22 32 25.047200 -86 18 40.55541
 2018-Oct-24 04:37  m  22 32 25.012531 -86 18 40.50893
 2018-Oct-24 04:38  m  22 32 24.977865 -86 18 40.46244
 2018-Oct-24 04:39  m  22 32 24.943203 -86 18 40.41594
 2018-Oct-24 04:40  m  22 32 24.908545 -86 18 40.36945
 2018-Oct-24 04:41  m  22 32 24.873890 -86 18 40.32295
 2018-Oct-24 04:42  m  22 32 24.839239 -86 18 40.27645
 2018-Oct-24 04:43  m  22 32 24.804592 -86 18 40.22995
 2018-Oct-24 04:44  m  22 32 24.769949 -86 18 40.18344
 2018-Oct-24 04:45  m  22 32 24.735310 -86 18 40.13693
 2018-Oct-24 04:46  m  22 32 24.700674 -86 18 40.09042
 2018-Oct-24 04:47  m  22 32 24.666042 -86 18 40.04391
 2018-Oct-24 04:48  m  22 32 24.631413 -86 18 39.99739
 2018-Oct-24 04:49  m  22 32 24.596789 -86 18 39.95088
 2018-Oct-24 04:50  m  22 32 24.562168 -86 18 39.90436
 2018-Oct-24 04:51  m  22 32 24.527551 -86 18 39.85783
 2018-Oct-24 04:52  m  22 32 24.492938 -86 18 39.81131
 2018-Oct-24 04:53  m  22 32 24.458329 -86 18 39.76478
 2018-Oct-24 04:54  m  22 32 24.423724 -86 18 39.71825
 2018-Oct-24 04:55  m  22 32 24.389122 -86 18 39.67172
 2018-Oct-24 04:56  m  22 32 24.354524 -86 18 39.62518
 2018-Oct-24 04:57  m  22 32 24.319930 -86 18 39.57864
 2018-Oct-24 04:58  m  22 32 24.285340 -86 18 39.53210
 2018-Oct-24 04:59  m  22 32 24.250754 -86 18 39.48556
 2018-Oct-24 05:00  m  22 32 24.216172 -86 18 39.43902
 2018-Oct-24 05:01  m  22 32 24.181593 -86 18 39.39247
 2018-Oct-24 05:02  m  22 32 24.147019 -86 18 39.34592
 2018-Oct-24 05:03  m  22 32 24.112448 -86 18 39.29937
 2018-Oct-24 05:04  m  22 32 24.077882 -86 18 39.25281
 2018-Oct-24 05:05  m  22 32 24.043319 -86 18 39.20626
 2018-Oct-24 05:06  m  22 32 24.008760 -86 18 39.15970
 2018-Oct-24 05:07  m  22 32 23.974205 -86 18 39.11314
 2018-Oct-24 05:08  m  22 32 23.939654 -86 18 39.06657
 2018-Oct-24 05:09  m  22 32 23.905107 -86 18 39.02001
 2018-Oct-24 05:10  m  22 32 23.870564 -86 18 38.97344
 2018-Oct-24 05:11  m  22 32 23.836025 -86 18 38.92687
 2018-Oct-24 05:12  m  22 32 23.801490 -86 18 38.88030
 2018-Oct-24 05:13  m  22 32 23.766959 -86 18 38.83373
 2018-Oct-24 05:14  m  22 32 23.732432 -86 18 38.78715
 2018-Oct-24 05:15  m  22 32 23.697909 -86 18 38.74057
 2018-Oct-24 05:16  m  22 32 23.663389 -86 18 38.69399
 2018-Oct-24 05:17  m  22 32 23.628874 -86 18 38.64741
 2018-Oct-24 05:18  m  22 32 23.594363 -86 18 38.60082
